[{"OBJECT_NAME":"HORS 4 (RS82S)","OBJECT_ID":"2024-199V","EPOCH":"2026-04-26T20:07:28.419168","MEAN_MOTION":15.55165017,"ECCENTRICITY":0.0008511,"INCLINATION":97.3016,"RA_OF_ASC_NODE":352.6863,"ARG_OF_PERICENTER":104.8357,"MEAN_ANOMALY":255.3841,"EPHEMERIS_TYPE":0,"CLASSIFICATION_TYPE":"U","NORAD_CAT_ID":61754,"ELEMENT_SET_NO":999,"REV_AT_EPOCH":12965,"BSTAR":0.00066981,"MEAN_MOTION_DOT":0.00045329,"MEAN_MOTION_DDOT":0},{"OBJECT_NAME":"HORIZON (RS59S)","OBJECT_ID":"2024-199Y","EPOCH":"2026-04-26T20:09:05.220000","MEAN_MOTION":15.91203678,"ECCENTRICITY":0.0005475,"INCLINATION":97.2919,"RA_OF_ASC_NODE":358.4142,"ARG_OF_PERICENTER":120.2426,"MEAN_ANOMALY":239.9391,"EPHEMERIS_TYPE":0,"CLASSIFICATION_TYPE":"U","NORAD_CAT_ID":61757,"ELEMENT_SET_NO":999,"REV_AT_EPOCH":13002,"BSTAR":0.0013005,"MEAN_MOTION_DOT":0.00410597,"MEAN_MOTION_DDOT":6.5891e-5},{"OBJECT_NAME":"ARCTICSAT 1 (RS74S)","OBJECT_ID":"2024-199AD","EPOCH":"2026-04-24T22:15:10.708128","MEAN_MOTION":15.77517111,"ECCENTRICITY":0.00068537,"INCLINATION":97.2986,"RA_OF_ASC_NODE":355.3724,"ARG_OF_PERICENTER":100.074,"MEAN_ANOMALY":260.13,"EPHEMERIS_TYPE":0,"CLASSIFICATION_TYPE":"U","NORAD_CAT_ID":61762,"ELEMENT_SET_NO":999,"REV_AT_EPOCH":12965,"BSTAR":0.00042412045,"MEAN_MOTION_DOT":0.00070579,"MEAN_MOTION_DDOT":0},{"OBJECT_NAME":"SIT-2086","OBJECT_ID":"2024-199AF","EPOCH":"2026-04-26T20:27:51.098400","MEAN_MOTION":15.49984224,"ECCENTRICITY":0.0008565,"INCLINATION":97.3039,"RA_OF_ASC_NODE":352.4301,"ARG_OF_PERICENTER":96.1657,"MEAN_ANOMALY":264.057,"EPHEMERIS_TYPE":0,"CLASSIFICATION_TYPE":"U","NORAD_CAT_ID":61764,"ELEMENT_SET_NO":999,"REV_AT_EPOCH":12647,"BSTAR":0.00043345,"MEAN_MOTION_DOT":0.00024257,"MEAN_MOTION_DDOT":0},{"OBJECT_NAME":"HYPERVIEW 1G (RS66S)","OBJECT_ID":"2024-199AP","EPOCH":"2026-04-26T19:35:25.893024","MEAN_MOTION":15.65174268,"ECCENTRICITY":0.000942,"INCLINATION":97.2986,"RA_OF_ASC_NODE":354.3702,"ARG_OF_PERICENTER":105.3619,"MEAN_ANOMALY":254.8682,"EPHEMERIS_TYPE":0,"CLASSIFICATION_TYPE":"U","NORAD_CAT_ID":61772,"ELEMENT_SET_NO":999,"REV_AT_EPOCH":12661,"BSTAR":0.00089889,"MEAN_MOTION_DOT":0.0008962,"MEAN_MOTION_DDOT":0},{"OBJECT_NAME":"ALTAIR (RS65S)","OBJECT_ID":"2024-199AW","EPOCH":"2026-04-26T19:03:19.109952","MEAN_MOTION":15.36016352,"ECCENTRICITY":0.0014611,"INCLINATION":97.3108,"RA_OF_ASC_NODE":346.502,"ARG_OF_PERICENTER":126.5572,"MEAN_ANOMALY":233.7019,"EPHEMERIS_TYPE":0,"CLASSIFICATION_TYPE":"U","NORAD_CAT_ID":61779,"ELEMENT_SET_NO":999,"REV_AT_EPOCH":12922,"BSTAR":0.00036115,"MEAN_MOTION_DOT":0.00012635,"MEAN_MOTION_DDOT":0},{"OBJECT_NAME":"ASRTU-1 (AO-123)","OBJECT_ID":"2024-199AY","EPOCH":"2026-04-26T19:20:11.186592","MEAN_MOTION":15.34903625,"ECCENTRICITY":0.0015508,"INCLINATION":97.3081,"RA_OF_ASC_NODE":345.9488,"ARG_OF_PERICENTER":129.1426,"MEAN_ANOMALY":231.1198,"EPHEMERIS_TYPE":0,"CLASSIFICATION_TYPE":"U","NORAD_CAT_ID":61781,"ELEMENT_SET_NO":999,"REV_AT_EPOCH":12604,"BSTAR":0.00025415,"MEAN_MOTION_DOT":8.557e-5,"MEAN_MOTION_DDOT":0},{"OBJECT_NAME":"TUSUR GO (RS78S)","OBJECT_ID":"2024-199AZ","EPOCH":"2026-04-26T20:17:43.111104","MEAN_MOTION":15.97534146,"ECCENTRICITY":0.0005622,"INCLINATION":97.2876,"RA_OF_ASC_NODE":357.5679,"ARG_OF_PERICENTER":139.6123,"MEAN_ANOMALY":220.5572,"EPHEMERIS_TYPE":0,"CLASSIFICATION_TYPE":"U","NORAD_CAT_ID":61782,"ELEMENT_SET_NO":999,"REV_AT_EPOCH":12683,"BSTAR":0.0015278,"MEAN_MOTION_DOT":0.00673467,"MEAN_MOTION_DDOT":0.00019992},{"OBJECT_NAME":"SAMSAT-IONOSPHERE (RS75S)","OBJECT_ID":"2024-199BB","EPOCH":"2026-04-26T20:21:57.324960","MEAN_MOTION":15.53348369,"ECCENTRICITY":0.0011521,"INCLINATION":97.3037,"RA_OF_ASC_NODE":351.6778,"ARG_OF_PERICENTER":109.5231,"MEAN_ANOMALY":250.7268,"EPHEMERIS_TYPE":0,"CLASSIFICATION_TYPE":"U","NORAD_CAT_ID":61784,"ELEMENT_SET_NO":999,"REV_AT_EPOCH":12958,"BSTAR":0.00067888,"MEAN_MOTION_DOT":0.0004305,"MEAN_MOTION_DDOT":0},{"OBJECT_NAME":"RTU MIREA 1 (RS51S)","OBJECT_ID":"2024-199BC","EPOCH":"2026-04-26T20:12:21.436992","MEAN_MOTION":15.55878816,"ECCENTRICITY":0.0011597,"INCLINATION":97.3029,"RA_OF_ASC_NODE":352.2774,"ARG_OF_PERICENTER":107.5869,"MEAN_ANOMALY":252.6654,"EPHEMERIS_TYPE":0,"CLASSIFICATION_TYPE":"U","NORAD_CAT_ID":61785,"ELEMENT_SET_NO":999,"REV_AT_EPOCH":12647,"BSTAR":0.00067551,"MEAN_MOTION_DOT":0.00047004,"MEAN_MOTION_DDOT":0},{"OBJECT_NAME":"TEVEL2-4","OBJECT_ID":"2025-052D","EPOCH":"2026-04-26T16:53:42.038592","MEAN_MOTION":15.32797336,"ECCENTRICITY":8.68e-5,"INCLINATION":97.3963,"RA_OF_ASC_NODE":13.0669,"ARG_OF_PERICENTER":353.6325,"MEAN_ANOMALY":6.4905,"EPHEMERIS_TYPE":0,"CLASSIFICATION_TYPE":"U","NORAD_CAT_ID":63213,"ELEMENT_SET_NO":999,"REV_AT_EPOCH":6222,"BSTAR":0.00071632,"MEAN_MOTION_DOT":0.00022653,"MEAN_MOTION_DDOT":0},{"OBJECT_NAME":"TEVEL2-5","OBJECT_ID":"2025-052E","EPOCH":"2026-04-26T15:41:30.873120","MEAN_MOTION":15.32647574,"ECCENTRICITY":9.27e-5,"INCLINATION":97.3961,"RA_OF_ASC_NODE":12.9784,"ARG_OF_PERICENTER":348.7738,"MEAN_ANOMALY":11.3483,"EPHEMERIS_TYPE":0,"CLASSIFICATION_TYPE":"U","NORAD_CAT_ID":63214,"ELEMENT_SET_NO":999,"REV_AT_EPOCH":6221,"BSTAR":0.00071513,"MEAN_MOTION_DOT":0.00022509,"MEAN_MOTION_DDOT":0},{"OBJECT_NAME":"TEVEL2-6","OBJECT_ID":"2025-052F","EPOCH":"2026-04-26T14:23:26.827584","MEAN_MOTION":15.32606866,"ECCENTRICITY":9.884e-5,"INCLINATION":97.3966,"RA_OF_ASC_NODE":12.9093,"ARG_OF_PERICENTER":348.5504,"MEAN_ANOMALY":11.5715,"EPHEMERIS_TYPE":0,"CLASSIFICATION_TYPE":"U","NORAD_CAT_ID":63215,"ELEMENT_SET_NO":999,"REV_AT_EPOCH":6220,"BSTAR":0.00072709998,"MEAN_MOTION_DOT":0.00022858,"MEAN_MOTION_DDOT":0},{"OBJECT_NAME":"TEVEL2-1","OBJECT_ID":"2025-052H","EPOCH":"2026-04-26T14:41:02.201856","MEAN_MOTION":15.32134284,"ECCENTRICITY":0.00016271,"INCLINATION":97.3937,"RA_OF_ASC_NODE":12.6042,"ARG_OF_PERICENTER":2.9642,"MEAN_ANOMALY":357.1609,"EPHEMERIS_TYPE":0,"CLASSIFICATION_TYPE":"U","NORAD_CAT_ID":63217,"ELEMENT_SET_NO":999,"REV_AT_EPOCH":6219,"BSTAR":0.00068955172,"MEAN_MOTION_DOT":0.00021352,"MEAN_MOTION_DDOT":0},{"OBJECT_NAME":"TEVEL2-3","OBJECT_ID":"2025-052J","EPOCH":"2026-04-26T03:37:24.948480","MEAN_MOTION":15.321605,"ECCENTRICITY":0.00017308,"INCLINATION":97.394,"RA_OF_ASC_NODE":12.16,"ARG_OF_PERICENTER":4.6507,"MEAN_ANOMALY":355.4751,"EPHEMERIS_TYPE":0,"CLASSIFICATION_TYPE":"U","NORAD_CAT_ID":63218,"ELEMENT_SET_NO":999,"REV_AT_EPOCH":6212,"BSTAR":0.0006889531,"MEAN_MOTION_DOT":0.00021351,"MEAN_MOTION_DDOT":0},{"OBJECT_NAME":"TEVEL2-2","OBJECT_ID":"2025-052K","EPOCH":"2026-04-26T14:41:48.837984","MEAN_MOTION":15.32138982,"ECCENTRICITY":0.00017639,"INCLINATION":97.3937,"RA_OF_ASC_NODE":12.6068,"ARG_OF_PERICENTER":1.822,"MEAN_ANOMALY":358.3027,"EPHEMERIS_TYPE":0,"CLASSIFICATION_TYPE":"U","NORAD_CAT_ID":63219,"ELEMENT_SET_NO":999,"REV_AT_EPOCH":6219,"BSTAR":0.00068646883,"MEAN_MOTION_DOT":0.00021259,"MEAN_MOTION_DDOT":0}]
