HORS 4 (RS82S)          
1 61754U 24199V   26116.83852337  .00045329  00000+0  66981-3 0  9998
2 61754  97.3016 352.6863 0008511 104.8357 255.3841 15.55165017129654
HORIZON (RS59S)         
1 61757U 24199Y   26116.83964375  .00410597  65891-4  13005-2 0  9992
2 61757  97.2919 358.4142 0005475 120.2426 239.9391 15.91203678130024
ARCTICSAT 1 (RS74S)     
1 61762U 24199AD  26114.92720727  .00070579  00000+0  42412-3 0  9990
2 61762  97.2986 355.3724 0006853 100.0740 260.1300 15.77517111129659
SIT-2086                
1 61764U 24199AF  26116.85267475  .00024257  00000+0  43345-3 0  9990
2 61764  97.3039 352.4301 0008565  96.1657 264.0570 15.49984224126475
HYPERVIEW 1G (RS66S)    
1 61772U 24199AP  26116.81627191  .00089620  00000+0  89889-3 0  9998
2 61772  97.2986 354.3702 0009420 105.3619 254.8682 15.65174268126616
ALTAIR (RS65S)          
1 61779U 24199AW  26116.79397118  .00012635  00000+0  36115-3 0  9991
2 61779  97.3108 346.5020 0014611 126.5572 233.7019 15.36016352129224
ASRTU-1 (AO-123)        
1 61781U 24199AY  26116.80568503  .00008557  00000+0  25415-3 0  9993
2 61781  97.3081 345.9488 0015508 129.1426 231.1198 15.34903625126044
TUSUR GO (RS78S)        
1 61782U 24199AZ  26116.84563786  .00673467  19992-3  15278-2 0  9993
2 61782  97.2876 357.5679 0005622 139.6123 220.5572 15.97534146126835
SAMSAT-IONOSPHERE (RS7*)
1 61784U 24199BB  26116.84858015  .00043050  00000+0  67888-3 0  9997
2 61784  97.3037 351.6778 0011521 109.5231 250.7268 15.53348369129587
RTU MIREA 1 (RS51S)     
1 61785U 24199BC  26116.84191478  .00047004  00000+0  67551-3 0  9991
2 61785  97.3029 352.2774 0011597 107.5869 252.6654 15.55878816126472
TEVEL2-4                
1 63213U 25052D   26116.70395878  .00022653  00000+0  71632-3 0  9991
2 63213  97.3963  13.0669 0000868 353.6325   6.4905 15.32797336 62220
TEVEL2-5                
1 63214U 25052E   26116.65382955  .00022509  00000+0  71513-3 0  9996
2 63214  97.3961  12.9784 0000927 348.7738  11.3483 15.32647574 62217
TEVEL2-6                
1 63215U 25052F   26116.59961606  .00022858  00000+0  72710-3 0  9993
2 63215  97.3966  12.9093 0000988 348.5504  11.5715 15.32606866 62200
TEVEL2-1                
1 63217U 25052H   26116.61183104  .00021352  00000+0  68955-3 0  9991
2 63217  97.3937  12.6042 0001627   2.9642 357.1609 15.32134284 62195
TEVEL2-3                
1 63218U 25052J   26116.15098320  .00021351  00000+0  68895-3 0  9998
2 63218  97.3940  12.1600 0001730   4.6507 355.4751 15.32160500 62121
TEVEL2-2                
1 63219U 25052K   26116.61237081  .00021259  00000+0  68647-3 0  9991
2 63219  97.3937  12.6068 0001763   1.8220 358.3027 15.32138982 62192
